EARTHCARE               
1 59908U 24101A   24285.75264563  .00014621  00000+0  20410-3 0  9991
2 59908  96.9917  50.9683 0001962  65.4120 294.7340 15.56969580 21119
